[
  {
    "OBJECT_NAME": "STARLINK-35430",
    "OBJECT_ID": "25232R",
    "EPOCH": "2025-11-11T08:00:03.000384",
    "MEAN_MOTION": 15.3950926,
    "ECCENTRICITY": 0.0001123,
    "INCLINATION": 53.1589,
    "RA_OF_ASC_NODE": 295.506,
    "ARG_OF_PERICENTER": 94.0138,
    "MEAN_ANOMALY": 89.164,
    "EPHEMERIS_TYPE": 0,
    "CLASSIFICATION_TYPE": "U",
    "NORAD_CAT_ID": 66020,
    "ELEMENT_SET_NO": 999,
    "REV_AT_EPOCH": 449,
    "BSTAR": 0.0025285000000000004,
    "MEAN_MOTION_DOT": 0.00101725,
    "MEAN_MOTION_DDOT": 0.0,
    "TLE_LINE1": "1 66020U 25232R   25315.33336806  .00101725  00000+0  25285-2 0  9995",
    "TLE_LINE2": "2 66020  53.1589 295.5060 0001123  94.0138  89.1640 15.39509260  4491",
    "COMMENT": "Grouped by shell and plane from TLE"
  },
  {
    "OBJECT_NAME": "STARLINK-35432",
    "OBJECT_ID": "25232S",
    "EPOCH": "2025-11-11T08:00:03.000384",
    "MEAN_MOTION": 15.39538777,
    "ECCENTRICITY": 0.0001339,
    "INCLINATION": 53.1593,
    "RA_OF_ASC_NODE": 295.5577,
    "ARG_OF_PERICENTER": 112.9221,
    "MEAN_ANOMALY": 44.4783,
    "EPHEMERIS_TYPE": 0,
    "CLASSIFICATION_TYPE": "U",
    "NORAD_CAT_ID": 66021,
    "ELEMENT_SET_NO": 999,
    "REV_AT_EPOCH": 441,
    "BSTAR": 0.0021235,
    "MEAN_MOTION_DOT": 0.00085264,
    "MEAN_MOTION_DDOT": 0.0,
    "TLE_LINE1": "1 66021U 25232S   25315.33336806  .00085264  00000+0  21235-2 0  9996",
    "TLE_LINE2": "2 66021  53.1593 295.5577 0001339 112.9221  44.4783 15.39538777  4411",
    "COMMENT": "Grouped by shell and plane from TLE"
  },
  {
    "OBJECT_NAME": "STARLINK-35340",
    "OBJECT_ID": "25232T",
    "EPOCH": "2025-11-11T08:00:03.000384",
    "MEAN_MOTION": 15.39502685,
    "ECCENTRICITY": 0.0001418,
    "INCLINATION": 53.1596,
    "RA_OF_ASC_NODE": 295.4533,
    "ARG_OF_PERICENTER": 94.3628,
    "MEAN_ANOMALY": 114.5771,
    "EPHEMERIS_TYPE": 0,
    "CLASSIFICATION_TYPE": "U",
    "NORAD_CAT_ID": 66022,
    "ELEMENT_SET_NO": 999,
    "REV_AT_EPOCH": 449,
    "BSTAR": 0.0028793000000000004,
    "MEAN_MOTION_DOT": 0.00116092,
    "MEAN_MOTION_DDOT": 0.0,
    "TLE_LINE1": "1 66022U 25232T   25315.33336806  .00116092  00000+0  28793-2 0  9997",
    "TLE_LINE2": "2 66022  53.1596 295.4533 0001418  94.3628 114.5771 15.39502685  4491",
    "COMMENT": "Grouped by shell and plane from TLE"
  },
  {
    "OBJECT_NAME": "STARLINK-35394",
    "OBJECT_ID": "25232U",
    "EPOCH": "2025-11-11T08:00:03.000384",
    "MEAN_MOTION": 15.39539252,
    "ECCENTRICITY": 0.0001671,
    "INCLINATION": 53.1599,
    "RA_OF_ASC_NODE": 295.4016,
    "ARG_OF_PERICENTER": 84.081,
    "MEAN_ANOMALY": 150.5547,
    "EPHEMERIS_TYPE": 0,
    "CLASSIFICATION_TYPE": "U",
    "NORAD_CAT_ID": 66023,
    "ELEMENT_SET_NO": 999,
    "REV_AT_EPOCH": 449,
    "BSTAR": 0.0027400000000000002,
    "MEAN_MOTION_DOT": 0.00110505,
    "MEAN_MOTION_DDOT": 0.0,
    "TLE_LINE1": "1 66023U 25232U   25315.33336806  .00110505  00000+0  27400-2 0  9995",
    "TLE_LINE2": "2 66023  53.1599 295.4016 0001671  84.0810 150.5547 15.39539252  4492",
    "COMMENT": "Grouped by shell and plane from TLE"
  },
  {
    "OBJECT_NAME": "STARLINK-35410",
    "OBJECT_ID": "25232V",
    "EPOCH": "2025-11-11T08:00:03.000384",
    "MEAN_MOTION": 15.4095698,
    "ECCENTRICITY": 0.0002054,
    "INCLINATION": 53.16,
    "RA_OF_ASC_NODE": 295.3011,
    "ARG_OF_PERICENTER": 103.589,
    "MEAN_ANOMALY": 181.7889,
    "EPHEMERIS_TYPE": 0,
    "CLASSIFICATION_TYPE": "U",
    "NORAD_CAT_ID": 66024,
    "ELEMENT_SET_NO": 999,
    "REV_AT_EPOCH": 449,
    "BSTAR": 0.0,
    "MEAN_MOTION_DOT": -0.01934351,
    "MEAN_MOTION_DDOT": 0.0,
    "TLE_LINE1": "1 66024U 25232V   25315.33336806 -.01934351  00000+0 -51715-1 0  9997",
    "TLE_LINE2": "2 66024  53.1600 295.3011 0002054 103.5890 181.7889 15.40956980  4499",
    "COMMENT": "Grouped by shell and plane from TLE"
  },
  {
    "OBJECT_NAME": "STARLINK-35280",
    "OBJECT_ID": "25232W",
    "EPOCH": "2025-11-11T08:00:03.000384",
    "MEAN_MOTION": 15.39548647,
    "ECCENTRICITY": 0.0001807,
    "INCLINATION": 53.1599,
    "RA_OF_ASC_NODE": 295.3507,
    "ARG_OF_PERICENTER": 88.7001,
    "MEAN_ANOMALY": 171.6523,
    "EPHEMERIS_TYPE": 0,
    "CLASSIFICATION_TYPE": "U",
    "NORAD_CAT_ID": 66025,
    "ELEMENT_SET_NO": 999,
    "REV_AT_EPOCH": 442,
    "BSTAR": 0.002251,
    "MEAN_MOTION_DOT": 0.00090503,
    "MEAN_MOTION_DDOT": 0.0,
    "TLE_LINE1": "1 66025U 25232W   25315.33336806  .00090503  00000+0  22510-2 0  9999",
    "TLE_LINE2": "2 66025  53.1599 295.3507 0001807  88.7001 171.6523 15.39548647  4421",
    "COMMENT": "Grouped by shell and plane from TLE"
  },
  {
    "OBJECT_NAME": "STARLINK-34812",
    "OBJECT_ID": "25232X",
    "EPOCH": "2025-11-11T08:00:03.000384",
    "MEAN_MOTION": 15.44052847,
    "ECCENTRICITY": 0.0001262,
    "INCLINATION": 53.1597,
    "RA_OF_ASC_NODE": 295.2645,
    "ARG_OF_PERICENTER": 84.8752,
    "MEAN_ANOMALY": 219.044,
    "EPHEMERIS_TYPE": 0,
    "CLASSIFICATION_TYPE": "U",
    "NORAD_CAT_ID": 66026,
    "ELEMENT_SET_NO": 999,
    "REV_AT_EPOCH": 443,
    "BSTAR": 0.0,
    "MEAN_MOTION_DOT": -0.02016625,
    "MEAN_MOTION_DDOT": 0.0,
    "TLE_LINE1": "1 66026U 25232X   25315.33336806 -.02016625  00000+0 -48804-1 0  9990",
    "TLE_LINE2": "2 66026  53.1597 295.2645 0001262  84.8752 219.0440 15.44052847  4431",
    "COMMENT": "Grouped by shell and plane from TLE"
  },
  {
    "OBJECT_NAME": "STARLINK-35341",
    "OBJECT_ID": "25232Y",
    "EPOCH": "2025-11-11T08:00:03.000384",
    "MEAN_MOTION": 15.39529826,
    "ECCENTRICITY": 0.000131,
    "INCLINATION": 53.1598,
    "RA_OF_ASC_NODE": 295.091,
    "ARG_OF_PERICENTER": 102.2634,
    "MEAN_ANOMALY": 286.9144,
    "EPHEMERIS_TYPE": 0,
    "CLASSIFICATION_TYPE": "U",
    "NORAD_CAT_ID": 66027,
    "ELEMENT_SET_NO": 999,
    "REV_AT_EPOCH": 449,
    "BSTAR": 0.0024804000000000002,
    "MEAN_MOTION_DOT": 0.00099825,
    "MEAN_MOTION_DDOT": 0.0,
    "TLE_LINE1": "1 66027U 25232Y   25315.33336806  .00099825  00000+0  24804-2 0  9995",
    "TLE_LINE2": "2 66027  53.1598 295.0910 0001310 102.2634 286.9144 15.39529826  4494",
    "COMMENT": "Grouped by shell and plane from TLE"
  },
  {
    "OBJECT_NAME": "STARLINK-35339",
    "OBJECT_ID": "25232Z",
    "EPOCH": "2025-11-11T08:00:03.000384",
    "MEAN_MOTION": 15.39646473,
    "ECCENTRICITY": 0.0001528,
    "INCLINATION": 53.1591,
    "RA_OF_ASC_NODE": 295.0394,
    "ARG_OF_PERICENTER": 92.2616,
    "MEAN_ANOMALY": 322.5906,
    "EPHEMERIS_TYPE": 0,
    "CLASSIFICATION_TYPE": "U",
    "NORAD_CAT_ID": 66028,
    "ELEMENT_SET_NO": 999,
    "REV_AT_EPOCH": 442,
    "BSTAR": 0.0,
    "MEAN_MOTION_DOT": -0.00079993,
    "MEAN_MOTION_DDOT": 0.0,
    "TLE_LINE1": "1 66028U 25232Z   25315.33336806 -.00079993  00000+0 -20090-2 0  9995",
    "TLE_LINE2": "2 66028  53.1591 295.0394 0001528  92.2616 322.5906 15.39646473  4427",
    "COMMENT": "Grouped by shell and plane from TLE"
  },
  {
    "OBJECT_NAME": "STARLINK-35399",
    "OBJECT_ID": "25232AA",
    "EPOCH": "2025-11-11T08:00:03.000384",
    "MEAN_MOTION": 15.39551933,
    "ECCENTRICITY": 0.000157,
    "INCLINATION": 53.1591,
    "RA_OF_ASC_NODE": 294.9885,
    "ARG_OF_PERICENTER": 83.2192,
    "MEAN_ANOMALY": 357.4047,
    "EPHEMERIS_TYPE": 0,
    "CLASSIFICATION_TYPE": "U",
    "NORAD_CAT_ID": 66029,
    "ELEMENT_SET_NO": 999,
    "REV_AT_EPOCH": 442,
    "BSTAR": 0.0021989,
    "MEAN_MOTION_DOT": 0.00088381,
    "MEAN_MOTION_DDOT": 0.0,
    "TLE_LINE1": "1 66029U 25232AA  25315.33336806  .00088381  00000+0  21989-2 0  9993",
    "TLE_LINE2": "2 66029  53.1591 294.9885 0001570  83.2192 357.4047 15.39551933  4426",
    "COMMENT": "Grouped by shell and plane from TLE"
  },
  {
    "OBJECT_NAME": "STARLINK-35431",
    "OBJECT_ID": "25232AB",
    "EPOCH": "2025-11-11T08:00:03.000384",
    "MEAN_MOTION": 15.42181953,
    "ECCENTRICITY": 0.0001447,
    "INCLINATION": 53.1592,
    "RA_OF_ASC_NODE": 294.942,
    "ARG_OF_PERICENTER": 84.4549,
    "MEAN_ANOMALY": 19.0841,
    "EPHEMERIS_TYPE": 0,
    "CLASSIFICATION_TYPE": "U",
    "NORAD_CAT_ID": 66030,
    "ELEMENT_SET_NO": 999,
    "REV_AT_EPOCH": 442,
    "BSTAR": 0.0,
    "MEAN_MOTION_DOT": -0.01769242,
    "MEAN_MOTION_DDOT": 0.0,
    "TLE_LINE1": "1 66030U 25232AB  25315.33336806 -.01769242  00000+0 -44953-1 0  9995",
    "TLE_LINE2": "2 66030  53.1592 294.9420 0001447  84.4549  19.0841 15.42181953  4424",
    "COMMENT": "Grouped by shell and plane from TLE"
  },
  {
    "OBJECT_NAME": "STARLINK-35326",
    "OBJECT_ID": "25232AC",
    "EPOCH": "2025-11-11T05:54:53.867520",
    "MEAN_MOTION": 15.49368119,
    "ECCENTRICITY": 0.000115,
    "INCLINATION": 53.1602,
    "RA_OF_ASC_NODE": 295.3134,
    "ARG_OF_PERICENTER": 86.5777,
    "MEAN_ANOMALY": 273.5364,
    "EPHEMERIS_TYPE": 0,
    "CLASSIFICATION_TYPE": "U",
    "NORAD_CAT_ID": 66031,
    "ELEMENT_SET_NO": 999,
    "REV_AT_EPOCH": 528,
    "BSTAR": 0.002386,
    "MEAN_MOTION_DOT": 0.00134845,
    "MEAN_MOTION_DDOT": 0.0,
    "TLE_LINE1": "1 66031U 25232AC  25315.24645680  .00134845  00000+0  23860-2 0  9996",
    "TLE_LINE2": "2 66031  53.1602 295.3134 0001150  86.5777 273.5364 15.49368119  5281",
    "COMMENT": "Grouped by shell and plane from TLE"
  },
  {
    "OBJECT_NAME": "STARLINK-35311",
    "OBJECT_ID": "25232AD",
    "EPOCH": "2025-11-11T05:54:24.216768",
    "MEAN_MOTION": 15.49354739,
    "ECCENTRICITY": 0.000128,
    "INCLINATION": 53.1601,
    "RA_OF_ASC_NODE": 295.31,
    "ARG_OF_PERICENTER": 66.6819,
    "MEAN_ANOMALY": 293.4325,
    "EPHEMERIS_TYPE": 0,
    "CLASSIFICATION_TYPE": "U",
    "NORAD_CAT_ID": 66032,
    "ELEMENT_SET_NO": 999,
    "REV_AT_EPOCH": 528,
    "BSTAR": 0.0014077,
    "MEAN_MOTION_DOT": 0.00078764,
    "MEAN_MOTION_DDOT": 0.0,
    "TLE_LINE1": "1 66032U 25232AD  25315.24611362  .00078764  00000+0  14077-2 0  9994",
    "TLE_LINE2": "2 66032  53.1601 295.3100 0001280  66.6819 293.4325 15.49354739  5285",
    "COMMENT": "Grouped by shell and plane from TLE"
  }
]